{"type":"FeatureCollection","features":[{"type":"Feature","properties":{"name":"ANTIOQUIA","code":"05"},"geometry":{"type":"MultiPolygon","coordinates":[[[[-76.414,8.874],[-76.295,8.315],[-76.512,7.611],[-75.798,7.449],[-75.722,7.589],[-75.336,7.906],[-75.207,8.056],[-74.876,8.15],[-74.659,8.056],[-74.556,7.649],[-74.355,7.4],[-74.405,7.229],[-74.37,7.097],[-74.355,7.017],[-74.115,6.769],[-74.681,5.779],[-74.89,5.739],[-75.03,5.671],[-75.095,5.583],[-75.197,5.519],[-75.317,5.484],[-75.375,5.633],[-75.588,5.638],[-75.702,5.535],[-76.068,5.739],[-76.198,6.112],[-76.644,6.168],[-76.819,6.521],[-76.825,6.859],[-76.564,6.989],[-76.508,7.185],[-77.128,7.826],[-76.931,8.173],[-76.868,8.055],[-76.729,8.088],[-76.736,8.09],[-76.737,8.075],[-76.742,8.087],[-76.759,8.376],[-76.887,8.606],[-76.414,8.871],[-76.414,8.874]]]]}},{"type":"Feature","properties":{"name":"ATLÁNTICO","code":"08"},"geometry":{"type":"MultiPolygon","coordinates":[[[[-74.849,11.098],[-74.812,11.037],[-74.759,10.986],[-74.756,10.961],[-74.726,10.915],[-74.732,10.896],[-74.74,10.853],[-74.73,10.664],[-74.802,10.487],[-74.92,10.267],[-75.127,10.399],[-75.153,10.426],[-75.159,10.444],[-75.197,10.47],[-75.234,10.487],[-75.236,10.511],[-75.225,10.56],[-75.234,10.648],[-75.242,10.689],[-75.247,10.718],[-75.231,10.755],[-75.217,10.802],[-75.179,10.83],[-75.144,10.851],[-75.118,10.863],[-75.108,10.865],[-75.103,10.867],[-75.083,10.883],[-75.062,10.889],[-75.034,10.928],[-75.028,10.941],[-75.038,10.946],[-75.054,10.936],[-74.959,10.99],[-74.954,11.004],[-74.945,11.012],[-74.93,11.022],[-74.922,11.044],[-74.887,11.044],[-74.85,11.057],[-74.852,11.104],[-74.849,11.098]]]]}},{"type":"Feature","properties":{"name":"BOGOTÁ, D.C.","code":"11"},"geometry":{"type":"MultiPolygon","coordinates":[[[[-74.071,4.829],[-74.017,4.821],[-74.012,4.758],[-74.002,4.674],[-74.011,4.639],[-74.032,4.539],[-74.092,4.459],[-74.104,4.333],[-74.122,4.307],[-74.149,4.248],[-74.142,4.233],[-74.138,4.22],[-74.134,4.204],[-74.125,4.193],[-74.118,4.18],[-74.11,4.177],[-74.113,4.161],[-74.12,4.098],[-74.131,4.085],[-74.126,4.066],[-74.127,4.049],[-74.133,4.037],[-74.141,4.025],[-74.148,4.012],[-74.28,3.906],[-74.448,3.739],[-74.413,3.8],[-74.37,3.887],[-74.359,3.973],[-74.338,4.106],[-74.235,4.201],[-74.212,4.394],[-74.178,4.487],[-74.174,4.54],[-74.18,4.583],[-74.206,4.602],[-74.18,4.653],[-74.126,4.73],[-74.114,4.785],[-74.087,4.802],[-74.073,4.836],[-74.071,4.829]]]]}},{"type":"Feature","properties":{"name":"BOLÍVAR","code":"13"},"geometry":{"type":"MultiPolygon","coordinates":[[[[-76.173,9.388],[-76.174,9.388],[-76.176,9.386],[-76.176,9.383],[-76.177,9.382],[-76.176,9.381],[-76.176,9.381],[-76.176,9.381],[-76.175,9.381],[-76.176,9.38],[-76.176,9.38],[-76.176,9.38],[-76.176,9.38],[-76.176,9.38],[-76.177,9.38],[-76.177,9.38],[-76.177,9.38],[-76.177,9.38],[-76.177,9.38],[-76.177,9.379],[-76.177,9.379],[-76.178,9.379],[-76.178,9.378],[-76.178,9.378],[-76.178,9.379],[-76.179,9.378],[-76.18,9.378],[-76.184,9.38],[-76.186,9.38],[-76.189,9.384],[-76.19,9.385],[-76.189,9.39],[-76.188,9.393],[-76.186,9.395],[-76.18,9.398],[-76.174,9.399],[-76.174,9.397],[-76.174,9.394],[-76.174,9.392],[-76.174,9.39],[-76.173,9.388]]],[[[-75.87,9.784],[-75.87,9.784],[-75.87,9.784],[-75.87,9.783],[-75.869,9.783],[-75.869,9.783],[-75.869,9.783],[-75.869,9.782],[-75.869,9.782],[-75.869,9.781],[-75.869,9.781],[-75.871,9.78],[-75.872,9.78],[-75.873,9.78],[-75.874,9.78],[-75.874,9.78],[-75.874,9.78],[-75.874,9.78],[-75.874,9.78],[-75.874,9.78],[-75.874,9.78],[-75.874,9.78],[-75.875,9.78],[-75.875,9.78],[-75.875,9.78],[-75.875,9.78],[-75.875,9.78],[-75.875,9.78],[-75.875,9.78],[-75.875,9.78],[-75.876,9.78],[-75.876,9.78],[-75.876,9.782],[-75.876,9.783],[-75.875,9.783],[-75.875,9.783],[-75.874,9.784],[-75.873,9.783],[-75.872,9.784],[-75.872,9.784],[-75.871,9.784],[-75.871,9.784],[-75.87,9.784]]],[[[-75.859,9.786],[-75.859,9.786],[-75.859,9.786],[-75.859,9.786],[-75.858,9.786],[-75.858,9.786],[-75.858,9.786],[-75.858,9.786],[-75.858,9.786],[-75.858,9.786],[-75.858,9.786],[-75.859,9.786],[-75.859,9.786],[-75.859,9.785],[-75.859,9.785],[-75.859,9.785],[-75.859,9.785],[-75.859,9.785],[-75.86,9.786],[-75.86,9.786],[-75.86,9.786],[-75.86,9.786],[-75.86,9.786],[-75.86,9.786],[-75.86,9.786],[-75.86,9.786],[-75.86,9.786],[-75.86,9.786],[-75.86,9.786],[-75.86,9.786],[-75.86,9.786],[-75.86,9.786],[-75.86,9.786],[-75.86,9.786],[-75.86,9.786],[-75.859,9.786],[-75.859,9.786],[-75.859,9.786],[-75.859,9.786],[-75.859,9.786],[-75.859,9.786]]],[[[-75.854,9.795],[-75.854,9.795],[-75.854,9.795],[-75.854,9.795],[-75.854,9.795],[-75.854,9.795],[-75.854,9.795],[-75.854,9.795],[-75.854,9.795],[-75.854,9.795],[-75.854,9.795],[-75.854,9.795],[-75.854,9.795],[-75.854,9.795],[-75.854,9.794],[-75.854,9.794],[-75.854,9.794],[-75.854,9.794],[-75.854,9.794],[-75.854,9.794],[-75.854,9.794],[-75.854,9.794],[-75.854,9.794],[-75.854,9.794],[-75.854,9.794],[-75.854,9.794],[-75.855,9.794],[-75.855,9.794],[-75.855,9.794],[-75.855,9.794],[-75.855,9.794],[-75.855,9.794],[-75.855,9.794],[-75.855,9.794],[-75.855,9.794],[-75.855,9.794],[-75.855,9.795],[-75.855,9.795],[-75.855,9.795],[-75.855,9.795],[-75.855,9.795],[-75.855,9.795],[-75.855,9.795],[-75.855,9.795],[-75.854,9.795],[-75.854,9.795],[-75.854,9.795],[-75.854,9.795],[-75.854,9.795],[-75.854,9.795],[-75.854,9.795],[-75.854,9.795],[-75.854,9.795],[-75.854,9.795],[-75.854,9.796],[-75.854,9.796],[-75.854,9.796],[-75.854,9.796],[-75.854,9.796],[-75.854,9.796],[-75.854,9.795],[-75.854,9.795],[-75.854,9.795],[-75.854,9.795]]],[[[-75.857,9.796],[-75.857,9.796],[-75.857,9.796],[-75.857,9.796],[-75.857,9.796],[-75.857,9.796],[-75.857,9.796],[-75.857,9.796],[-75.857,9.796],[-75.857,9.796],[-75.857,9.795],[-75.857,9.795],[-75.857,9.795],[-75.857,9.795],[-75.857,9.795],[-75.857,9.795],[-75.857,9.795],[-75.857,9.795],[-75.857,9.795],[-75.857,9.795],[-75.857,9.795],[-75.857,9.795],[-75.857,9.795],[-75.857,9.795],[-75.857,9.795],[-75.857,9.795],[-75.857,9.795],[-75.857,9.795],[-75.857,9.795],[-75.857,9.795],[-75.857,9.795],[-75.857,9.795],[-75.857,9.795],[-75.857,9.795],[-75.857,9.795],[-75.857,9.795],[-75.857,9.796],[-75.857,9.796],[-75.857,9.796],[-75.857,9.796],[-75.857,9.796],[-75.857,9.796],[-75.857,9.796],[-75.857,9.796],[-75.857,9.796],[-75.857,9.796],[-75.857,9.796],[-75.857,9.796],[-75.857,9.796],[-75.857,9.796]]],[[[-75.855,9.796],[-75.855,9.796],[-75.855,9.796],[-75.855,9.796],[-75.855,9.796],[-75.855,9.796],[-75.855,9.796],[-75.855,9.796],[-75.855,9.796],[-75.855,9.796],[-75.855,9.796],[-75.855,9.796],[-75.855,9.796],[-75.855,9.796],[-75.855,9.796],[-75.855,9.796],[-75.855,9.796],[-75.855,9.796],[-75.855,9.796],[-75.855,9.796],[-75.855,9.796],[-75.855,9.796],[-75.855,9.796],[-75.855,9.796],[-75.855,9.796],[-75.855,9.796],[-75.855,9.796],[-75.855,9.796],[-75.855,9.796],[-75.855,9.796],[-75.855,9.796],[-75.855,9.796],[-75.855,9.796],[-75.855,9.796],[-75.856,9.795],[-75.856,9.795],[-75.856,9.795],[-75.856,9.795],[-75.856,9.795],[-75.856,9.795],[-75.856,9.796],[-75.856,9.796],[-75.856,9.796],[-75.856,9.796],[-75.856,9.796],[-75.856,9.796],[-75.856,9.796],[-75.856,9.796],[-75.856,9.796],[-75.856,9.796],[-75.856,9.796],[-75.856,9.796],[-75.856,9.796],[-75.856,9.796],[-75.856,9.796],[-75.856,9.796],[-75.856,9.796],[-75.856,9.796],[-75.856,9.796],[-75.856,9.796],[-75.855,9.796]]],[[[-75.853,9.797],[-75.853,9.797],[-75.853,9.797],[-75.853,9.797],[-75.853,9.797],[-75.854,9.797],[-75.854,9.797],[-75.854,9.796],[-75.854,9.796],[-75.854,9.796],[-75.854,9.797],[-75.854,9.797],[-75.854,9.797],[-75.854,9.797],[-75.854,9.797],[-75.854,9.797],[-75.854,9.797],[-75.854,9.797],[-75.854,9.797],[-75.854,9.797],[-75.854,9.797],[-75.854,9.797],[-75.854,9.797],[-75.854,9.797],[-75.854,9.797],[-75.854,9.797],[-75.854,9.797],[-75.854,9.797],[-75.854,9.797],[-75.854,9.797],[-75.854,9.797],[-75.854,9.797],[-75.854,9.797],[-75.854,9.797],[-75.854,9.797],[-75.854,9.797],[-75.854,9.797],[-75.854,9.797],[-75.854,9.797],[-75.854,9.797],[-75.854,9.798],[-75.854,9.798],[-75.854,9.798],[-75.854,9.798],[-75.854,9.798],[-75.854,9.798],[-75.854,9.798],[-75.854,9.798],[-75.854,9.798],[-75.854,9.798],[-75.854,9.798],[-75.854,9.798],[-75.854,9.798],[-75.854,9.797],[-75.854,9.797],[-75.853,9.797],[-75.853,9.797],[-75.853,9.797],[-75.853,9.797],[-75.853,9.797],[-75.853,9.797],[-75.853,9.797]]],[[[-75.851,9.805],[-75.848,9.799],[-75.845,9.798],[-75.846,9.797],[-75.847,9.797],[-75.85,9.795],[-75.846,9.795],[-75.845,9.793],[-75.845,9.795],[-75.842,9.796],[-75.843,9.797],[-75.844,9.798],[-75.84,9.798],[-75.835,9.797],[-75.831,9.796],[-75.828,9.796],[-75.827,9.792],[-75.832,9.79],[-75.838,9.79],[-75.841,9.79],[-75.844,9.79],[-75.85,9.79],[-75.853,9.789],[-75.855,9.788],[-75.857,9.79],[-75.857,9.791],[-75.856,9.793],[-75.856,9.794],[-75.856,9.79],[-75.855,9.792],[-75.852,9.794],[-75.852,9.792],[-75.852,9.795],[-75.851,9.797],[-75.851,9.8],[-75.851,9.799],[-75.852,9.796],[-75.853,9.799],[-75.855,9.799],[-75.855,9.801],[-75.851,9.805]]],[[[-75.728,10.146],[-75.728,10.145],[-75.728,10.145],[-75.729,10.146],[-75.729,10.146],[-75.729,10.146],[-75.729,10.147],[-75.729,10.147],[-75.728,10.147],[-75.728,10.147],[-75.728,10.147],[-75.728,10.146],[-75.728,10.146],[-75.728,10.146]]],[[[-75.691,10.149],[-75.691,10.149],[-75.691,10.149],[-75.691,10.149],[-75.691,10.149],[-75.691,10.149],[-75.691,10.149],[-75.691,10.149],[-75.691,10.15],[-75.691,10.15],[-75.691,10.15],[-75.691,10.15],[-75.691,10.15],[-75.691,10.15],[-75.691,10.15],[-75.691,10.15],[-75.691,10.15],[-75.691,10.15],[-75.691,10.15],[-75.691,10.15],[-75.691,10.15],[-75.691,10.15],[-75.691,10.15],[-75.691,10.15],[-75.691,10.15],[-75.691,10.15],[-75.691,10.15],[-75.691,10.149],[-75.691,10.149],[-75.691,10.149]]],[[[-75.69,10.15],[-75.69,10.15],[-75.69,10.15],[-75.69,10.15],[-75.69,10.15],[-75.69,10.15],[-75.69,10.15],[-75.69,10.15],[-75.69,10.15],[-75.69,10.15],[-75.69,10.15],[-75.691,10.15],[-75.691,10.15],[-75.691,10.15],[-75.69,10.15],[-75.69,10.15],[-75.69,10.15],[-75.69,10.15],[-75.69,10.151],[-75.69,10.151],[-75.69,10.151],[-75.69,10.151],[-75.69,10.151],[-75.69,10.151],[-75.69,10.151],[-75.69,10.151],[-75.69,10.151],[-75.69,10.151],[-75.69,10.151],[-75.69,10.151],[-75.69,10.151],[-75.69,10.151],[-75.69,10.151],[-75.69,10.15],[-75.69,10.15],[-75.69,10.15],[-75.69,10.15],[-75.69,10.15],[-75.69,10.15],[-75.69,10.15],[-75.69,10.15]]],[[[-75.691,10.151],[-75.691,10.15],[-75.692,10.15],[-75.692,10.15],[-75.692,10.151],[-75.691,10.151],[-75.691,10.151]]],[[[-75.69,10.151],[-75.69,10.151],[-75.69,10.151],[-75.69,10.151],[-75.689,10.151],[-75.689,10.151],[-75.689,10.151],[-75.689,10.151],[-75.69,10.151]]],[[[-75.674,10.161],[-75.674,10.161],[-75.674,10.161],[-75.674,10.161],[-75.674,10.161],[-75.674,10.161],[-75.674,10.161],[-75.674,10.161],[-75.674,10.161],[-75.674,10.161],[-75.675,10.161],[-75.675,10.161],[-75.676,10.161],[-75.676,10.161],[-75.676,10.161],[-75.676,10.161],[-75.676,10.161],[-75.676,10.161],[-75.677,10.161],[-75.677,10.161],[-75.678,10.161],[-75.678,10.161],[-75.678,10.161],[-75.678,10.161],[-75.678,10.161],[-75.678,10.161],[-75.678,10.161],[-75.678,10.161],[-75.678,10.161],[-75.678,10.161],[-75.678,10.161],[-75.678,10.161],[-75.677,10.161],[-75.676,10.161],[-75.676,10.161],[-75.675,10.161],[-75.675,10.161],[-75.675,10.161],[-75.675,10.161],[-75.675,10.161],[-75.675,10.161],[-75.675,10.161],[-75.674,10.161],[-75.674,10.161],[-75.674,10.161],[-75.674,10.161],[-75.674,10.161],[-75.674,10.161],[-75.674,10.161]]],[[[-75.776,10.163],[-75.776,10.163],[-75.776,10.163],[-75.776,10.163],[-75.776,10.163],[-75.776,10.163],[-75.776,10.163],[-75.776,10.163],[-75.776,10.163],[-75.776,10.163],[-75.776,10.163],[-75.776,10.163],[-75.776,10.163],[-75.776,10.163],[-75.776,10.163],[-75.776,10.163],[-75.776,10.163],[-75.776,10.163]]],[[[-75.667,10.163],[-75.667,10.163],[-75.667,10.163],[-75.667,10.163],[-75.667,10.164],[-75.667,10.164],[-75.667,10.164],[-75.667,10.164],[-75.667,10.163]]],[[[-75.66,10.164],[-75.66,10.164],[-75.66,10.164],[-75.66,10.164],[-75.66,10.164],[-75.66,10.164],[-75.66,10.164],[-75.66,10.164],[-75.66,10.164],[-75.66,10.164],[-75.66,10.164],[-75.66,10.164],[-75.66,10.164],[-75.66,10.164],[-75.66,10.164],[-75.66,10.164],[-75.66,10.164],[-75.66,10.164],[-75.66,10.164],[-75.66,10.164],[-75.66,10.164],[-75.66,10.164],[-75.66,10.164],[-75.66,10.164],[-75.66,10.164],[-75.66,10.164],[-75.66,10.164],[-75.66,10.164],[-75.66,10.164],[-75.66,10.164],[-75.66,10.164],[-75.66,10.164],[-75.66,10.164],[-75.66,10.164],[-75.66,10.164],[-75.66,10.164],[-75.66,10.164],[-75.66,10.164],[-75.66,10.164],[-75.66,10.164],[-75.66,10.164],[-75.66,10.164],[-75.66,10.164],[-75.66,10.164],[-75.66,10.164],[-75.66,10.164]]],[[[-75.671,10.164],[-75.671,10.164],[-75.671,10.164],[-75.671,10.164],[-75.671,10.164],[-75.671,10.164],[-75.672,10.163],[-75.672,10.163],[-75.672,10.163],[-75.672,10.163],[-75.672,10.163],[-75.672,10.162],[-75.672,10.162],[-75.672,10.162],[-75.672,10.162],[-75.672,10.162],[-75.672,10.162],[-75.672,10.162],[-75.672,10.162],[-75.672,10.162],[-75.672,10.161],[-75.672,10.161],[-75.672,10.161],[-75.672,10.161],[-75.672,10.161],[-75.672,10.161],[-75.672,10.162],[-75.672,10.162],[-75.672,10.162],[-75.672,10.163],[-75.672,10.163],[-75.672,10.163],[-75.672,10.163],[-75.672,10.163],[-75.672,10.164],[-75.672,10.164],[-75.672,10.164],[-75.672,10.164],[-75.671,10.165],[-75.671,10.165],[-75.671,10.165],[-75.671,10.165],[-75.671,10.165],[-75.671,10.165],[-75.671,10.164],[-75.671,10.164],[-75.671,10.164],[-75.671,10.164],[-75.671,10.164],[-75.671,10.164],[-75.671,10.164]]],[[[-75.664,10.165],[-75.664,10.165],[-75.664,10.165],[-75.664,10.165],[-75.664,10.165],[-75.664,10.165],[-75.664,10.165],[-75.664,10.165],[-75.663,10.165],[-75.663,10.165],[-75.663,10.165],[-75.663,10.165],[-75.663,10.165],[-75.663,10.165],[-75.663,10.165],[-75.663,10.165],[-75.663,10.165],[-75.663,10.165],[-75.663,10.165],[-75.663,10.165],[-75.663,10.165],[-75.663,10.165],[-75.664,10.165],[-75.664,10.165],[-75.664,10.165],[-75.664,10.165],[-75.664,10.165],[-75.664,10.165],[-75.664,10.165],[-75.664,10.165],[-75.664,10.165],[-75.664,10.165],[-75.664,10.165],[-75.664,10.165],[-75.664,10.165],[-75.664,10.165],[-75.664,10.165],[-75.664,10.165],[-75.664,10.165],[-75.664,10.165],[-75.664,10.165],[-75.664,10.165],[-75.664,10.165],[-75.664,10.165],[-75.664,10.165],[-75.664,10.165],[-75.664,10.165],[-75.664,10.165],[-75.664,10.165],[-75.664,10.165],[-75.664,10.165],[-75.664,10.165],[-75.664,10.165]]],[[[-75.655,10.165],[-75.655,10.165],[-75.655,10.165],[-75.655,10.165],[-75.655,10.165],[-75.655,10.165],[-75.655,10.165],[-75.655,10.165],[-75.655,10.165],[-75.655,10.165],[-75.655,10.165],[-75.655,10.165],[-75.655,10.165],[-75.655,10.165],[-75.655,10.165],[-75.655,10.165],[-75.655,10.165],[-75.655,10.165],[-75.655,10.165],[-75.655,10.165],[-75.655,10.165],[-75.655,10.165],[-75.655,10.165],[-75.655,10.165],[-75.655,10.165],[-75.655,10.165],[-75.655,10.165],[-75.655,10.165],[-75.655,10.165],[-75.655,10.165],[-75.655,10.165],[-75.655,10.165],[-75.655,10.165],[-75.655,10.165],[-75.655,10.165],[-75.655,10.165],[-75.655,10.165],[-75.655,10.165],[-75.655,10.165],[-75.655,10.165],[-75.655,10.165],[-75.655,10.165],[-75.655,10.165],[-75.655,10.165]]],[[[-75.662,10.166],[-75.662,10.166],[-75.662,10.166],[-75.662,10.166],[-75.662,10.166],[-75.662,10.166],[-75.662,10.166],[-75.662,10.166],[-75.662,10.166],[-75.661,10.166],[-75.661,10.165],[-75.661,10.165],[-75.661,10.165],[-75.661,10.165],[-75.661,10.165],[-75.661,10.165],[-75.661,10.165],[-75.662,10.165],[-75.662,10.165],[-75.662,10.165],[-75.662,10.165],[-75.662,10.165],[-75.662,10.165],[-75.662,10.165],[-75.662,10.165],[-75.662,10.165],[-75.662,10.165],[-75.662,10.165],[-75.662,10.165],[-75.662,10.165],[-75.662,10.165],[-75.662,10.165],[-75.662,10.165],[-75.662,10.165],[-75.662,10.165],[-75.662,10.165],[-75.662,10.165],[-75.662,10.165],[-75.662,10.165],[-75.662,10.165],[-75.662,10.165],[-75.662,10.165],[-75.662,10.165],[-75.662,10.166],[-75.662,10.166],[-75.662,10.166],[-75.662,10.166],[-75.662,10.166],[-75.662,10.166],[-75.662,10.166],[-75.662,10.166]]],[[[-75.663,10.166],[-75.663,10.166],[-75.663,10.166],[-75.663,10.166],[-75.663,10.166],[-75.663,10.166],[-75.663,10.166],[-75.663,10.167],[-75.664,10.167],[-75.664,10.167],[-75.664,10.167],[-75.664,10.167],[-75.664,10.167],[-75.664,10.167],[-75.664,10.167],[-75.664,10.167],[-75.664,10.167],[-75.664,10.167],[-75.664,10.167],[-75.663,10.167],[-75.663,10.167],[-75.663,10.167],[-75.663,10.167],[-75.663,10.167],[-75.663,10.167],[-75.663,10.167],[-75.663,10.167],[-75.663,10.167],[-75.663,10.167],[-75.663,10.167],[-75.663,10.167],[-75.663,10.167],[-75.663,10.167],[-75.663,10.167],[-75.663,10.167],[-75.663,10.167],[-75.663,10.167],[-75.663,10.167],[-75.663,10.167],[-75.663,10.167],[-75.663,10.167],[-75.663,10.167],[-75.663,10.167],[-75.663,10.167],[-75.663,10.167],[-75.663,10.167],[-75.663,10.167],[-75.663,10.167],[-75.663,10.167],[-75.663,10.167],[-75.663,10.167],[-75.663,10.167],[-75.663,10.167],[-75.663,10.167],[-75.663,10.167],[-75.663,10.167],[-75.663,10.167],[-75.663,10.167],[-75.663,10.167],[-75.663,10.167],[-75.663,10.167],[-75.663,10.167],[-75.663,10.167],[-75.663,10.167],[-75.663,10.167],[-75.663,10.167],[-75.663,10.167],[-75.663,10.167],[-75.663,10.167],[-75.663,10.167],[-75.663,10.167],[-75.663,10.167],[-75.663,10.167],[-75.663,10.166],[-75.663,10.166],[-75.663,10.166],[-75.663,10.166]]],[[[-75.667,10.167],[-75.667,10.167],[-75.667,10.167],[-75.667,10.167],[-75.667,10.167],[-75.667,10.167],[-75.667,10.167],[-75.666,10.167],[-75.666,10.167],[-75.666,10.167],[-75.666,10.167],[-75.666,10.167],[-75.666,10.167],[-75.666,10.167],[-75.666,10.167],[-75.666,10.167],[-75.666,10.167],[-75.666,10.166],[-75.667,10.166],[-75.667,10.166],[-75.667,10.166],[-75.667,10.166],[-75.667,10.166],[-75.667,10.166],[-75.667,10.166],[-75.667,10.166],[-75.667,10.166],[-75.667,10.166],[-75.667,10.166],[-75.667,10.166],[-75.667,10.166],[-75.667,10.166],[-75.667,10.166],[-75.667,10.166],[-75.667,10.166],[-75.667,10.166],[-75.667,10.166],[-75.667,10.167],[-75.667,10.167],[-75.667,10.167],[-75.668,10.167],[-75.668,10.167],[-75.668,10.167],[-75.668,10.167],[-75.668,10.167],[-75.667,10.167],[-75.667,10.167],[-75.667,10.167],[-75.667,10.167],[-75.667,10.167],[-75.667,10.167],[-75.667,10.167],[-75.667,10.167],[-75.667,10.167],[-75.667,10.167],[-75.667,10.167],[-75.667,10.167],[-75.667,10.167]]],[[[-75.796,10.169],[-75.795,10.169],[-75.795,10.168],[-75.795,10.168],[-75.795,10.168],[-75.794,10.168],[-75.793,10.167],[-75.791,10.167],[-75.79,10.168],[-75.789,10.167],[-75.789,10.168],[-75.788,10.168],[-75.787,10.167],[-75.786,10.167],[-75.787,10.166],[-75.787,10.166],[-75.788,10.166],[-75.788,10.165],[-75.787,10.165],[-75.785,10.164],[-75.784,10.163],[-75.784,10.162],[-75.784,10.16],[-75.783,10.159],[-75.785,10.158],[-75.787,10.158],[-75.789,10.157],[-75.79,10.158],[-75.79,10.159],[-75.791,10.16],[-75.792,10.16],[-75.793,10.161],[-75.794,10.163],[-75.795,10.165],[-75.795,10.166],[-75.795,10.166],[-75.796,10.166],[-75.795,10.167],[-75.796,10.168],[-75.797,10.169],[-75.796,10.169],[-75.796,10.169]]],[[[-75.653,10.171],[-75.653,10.17],[-75.653,10.168],[-75.654,10.167],[-75.655,10.167],[-75.656,10.166],[-75.658,10.166],[-75.658,10.167],[-75.658,10.168],[-75.658,10.168],[-75.658,10.169],[-75.658,10.169],[-75.659,10.169],[-75.66,10.167],[-75.661,10.167],[-75.661,10.168],[-75.661,10.168],[-75.661,10.169],[-75.663,10.169],[-75.664,10.169],[-75.664,10.168],[-75.665,10.167],[-75.665,10.167],[-75.666,10.168],[-75.667,10.168],[-75.668,10.168],[-75.668,10.167],[-75.669,10.166],[-75.668,10.164],[-75.668,10.164],[-75.669,10.164],[-75.669,10.164],[-75.669,10.165],[-75.669,10.167],[-75.668,10.169],[-75.667,10.169],[-75.665,10.169],[-75.663,10.17],[-75.661,10.17],[-75.656,10.17],[-75.656,10.171],[-75.655,10.171],[-75.655,10.173],[-75.653,10.171]]],[[[-75.768,10.176],[-75.767,10.176],[-75.767,10.176],[-75.767,10.175],[-75.767,10.175],[-75.767,10.175],[-75.767,10.175],[-75.767,10.175],[-75.767,10.175],[-75.767,10.175],[-75.767,10.175],[-75.767,10.175],[-75.767,10.175],[-75.767,10.175],[-75.767,10.175],[-75.767,10.175],[-75.767,10.175],[-75.767,10.175],[-75.767,10.175],[-75.767,10.174],[-75.767,10.174],[-75.767,10.175],[-75.767,10.175],[-75.767,10.175],[-75.767,10.175],[-75.767,10.175],[-75.767,10.175],[-75.767,10.175],[-75.767,10.175],[-75.767,10.174],[-75.767,10.174],[-75.767,10.174],[-75.767,10.174],[-75.767,10.174],[-75.767,10.174],[-75.767,10.174],[-75.767,10.174],[-75.767,10.174],[-75.767,10.174],[-75.768,10.174],[-75.768,10.174],[-75.768,10.174],[-75.768,10.174],[-75.768,10.174],[-75.768,10.174],[-75.768,10.174],[-75.768,10.174],[-75.768,10.174],[-75.768,10.174],[-75.768,10.174],[-75.768,10.174],[-75.768,10.174],[-75.768,10.175],[-75.769,10.175],[-75.769,10.175],[-75.769,10.175],[-75.769,10.175],[-75.769,10.175],[-75.769,10.175],[-75.769,10.175],[-75.769,10.175],[-75.769,10.175],[-75.769,10.176],[-75.769,10.176],[-75.769,10.176],[-75.769,10.176],[-75.769,10.176],[-75.768,10.176],[-75.768,10.176],[-75.768,10.176],[-75.768,10.176],[-75.768,10.176],[-75.768,10.176],[-75.768,10.176],[-75.768,10.176],[-75.768,10.176],[-75.768,10.176]]],[[[-75.759,10.176],[-75.758,10.176],[-75.758,10.176],[-75.758,10.176],[-75.758,10.176],[-75.758,10.176],[-75.758,10.176],[-75.759,10.176],[-75.759,10.176],[-75.759,10.176],[-75.759,10.176],[-75.759,10.176],[-75.759,10.176],[-75.759,10.176],[-75.759,10.176],[-75.759,10.176],[-75.759,10.176],[-75.759,10.176],[-75.759,10.176],[-75.759,10.176],[-75.759,10.176],[-75.759,10.176],[-75.759,10.176],[-75.759,10.176]]],[[[-75.771,10.178],[-75.77,10.178],[-75.771,10.178],[-75.771,10.178],[-75.771,10.178],[-75.771,10.178],[-75.771,10.178],[-75.771,10.177],[-75.771,10.177],[-75.771,10.177],[-75.771,10.177],[-75.771,10.177],[-75.771,10.177],[-75.771,10.177],[-75.771,10.177],[-75.771,10.177],[-75.771,10.177],[-75.771,10.177],[-75.771,10.177],[-75.771,10.177],[-75.771,10.177],[-75.771,10.177],[-75.771,10.178],[-75.771,10.178],[-75.771,10.178],[-75.771,10.178],[-75.771,10.178],[-75.771,10.178],[-75.771,10.178],[-75.771,10.178],[-75.771,10.178],[-75.771,10.178],[-75.771,10.178]]],[[[-75.772,10.178],[-75.772,10.178],[-75.772,10.178],[-75.772,10.178],[-75.772,10.178],[-75.771,10.178],[-75.771,10.178],[-75.771,10.177],[-75.772,10.177],[-75.772,10.177],[-75.772,10.177],[-75.772,10.177],[-75.772,10.177],[-75.772,10.177],[-75.772,10.177],[-75.772,10.178],[-75.772,10.178],[-75.772,10.178],[-75.772,10.178],[-75.772,10.178],[-75.772,10.178],[-75.772,10.178],[-75.772,10.178],[-75.772,10.178]]],[[[-75.77,10.178],[-75.77,10.178],[-75.77,10.179],[-75.77,10.179],[-75.77,10.179],[-75.77,10.179],[-75.77,10.179],[-75.77,10.179],[-75.77,10.178],[-75.77,10.178],[-75.77,10.178],[-75.77,10.178]]],[[[-75.766,10.179],[-75.766,10.179],[-75.766,10.179],[-75.766,10.179],[-75.766,10.179]]],[[[-75.758,10.179],[-75.758,10.179],[-75.758,10.179],[-75.758,10.178],[-75.758,10.178],[-75.758,10.178],[-75.758,10.178],[-75.758,10.178],[-75.758,10.178],[-75.758,10.178],[-75.758,10.178],[-75.758,10.178],[-75.758,10.177],[-75.758,10.177],[-75.758,10.177],[-75.758,10.177],[-75.758,10.177],[-75.758,10.177],[-75.758,10.177],[-75.758,10.178],[-75.759,10.177],[-75.759,10.177],[-75.759,10.177],[-75.759,10.177],[-75.759,10.177],[-75.759,10.177],[-75.759,10.177],[-75.759,10.177],[-75.759,10.177],[-75.759,10.178],[-75.759,10.178],[-75.759,10.178],[-75.759,10.178],[-75.759,10.178],[-75.759,10.178],[-75.758,10.178],[-75.758,10.178],[-75.758,10.179],[-75.758,10.179],[-75.758,10.179],[-75.758,10.179],[-75.758,10.179],[-75.758,10.179],[-75.758,10.179],[-75.758,10.179],[-75.758,10.179],[-75.758,10.179],[-75.758,10.179]]],[[[-75.754,10.179],[-75.754,10.178],[-75.754,10.178],[-75.755,10.177],[-75.754,10.177],[-75.754,10.177],[-75.754,10.177],[-75.754,10.176],[-75.753,10.176],[-75.753,10.176],[-75.753,10.176],[-75.753,10.176],[-75.752,10.177],[-75.752,10.177],[-75.752,10.178],[-75.752,10.178],[-75.752,10.179],[-75.751,10.179],[-75.751,10.179],[-75.751,10.178],[-75.751,10.178],[-75.751,10.176],[-75.751,10.176],[-75.752,10.175],[-75.752,10.175],[-75.753,10.174],[-75.754,10.174],[-75.757,10.174],[-75.758,10.175],[-75.758,10.175],[-75.757,10.175],[-75.757,10.175],[-75.757,10.175],[-75.756,10.175],[-75.756,10.175],[-75.755,10.175],[-75.756,10.176],[-75.756,10.176],[-75.756,10.177],[-75.756,10.177],[-75.755,10.177],[-75.755,10.177],[-75.755,10.178],[-75.755,10.179],[-75.755,10.179],[-75.754,10.179]]],[[[-75.777,10.18],[-75.777,10.18],[-75.777,10.18],[-75.777,10.18],[-75.777,10.18],[-75.777,10.18],[-75.777,10.18],[-75.777,10.18],[-75.777,10.18],[-75.777,10.18],[-75.777,10.18],[-75.777,10.18],[-75.777,10.18],[-75.777,10.18],[-75.777,10.179],[-75.777,10.179],[-75.777,10.179],[-75.777,10.179],[-75.777,10.179],[-75.777,10.179],[-75.777,10.179],[-75.777,10.179],[-75.777,10.179],[-75.777,10.179],[-75.777,10.179],[-75.777,10.179],[-75.777,10.179],[-75.777,10.179],[-75.777,10.179],[-75.777,10.179],[-75.777,10.179],[-75.778,10.179],[-75.778,10.179],[-75.778,10.179],[-75.778,10.179],[-75.778,10.179],[-75.778,10.179],[-75.778,10.179],[-75.778,10.179],[-75.778,10.18],[-75.778,10.18],[-75.778,10.18],[-75.778,10.18],[-75.778,10.18],[-75.778,10.18],[-75.778,10.18],[-75.778,10.18],[-75.778,10.18],[-75.778,10.18],[-75.778,10.18],[-75.778,10.18],[-75.778,10.18],[-75.778,10.18],[-75.778,10.18],[-75.777,10.18],[-75.777,10.18],[-75.777,10.18]]],[[[-75.75,10.18],[-75.749,10.18],[-75.749,10.18],[-75.749,10.18],[-75.749,10.18],[-75.749,10.18],[-75.749,10.18],[-75.749,10.18],[-75.749,10.181],[-75.749,10.18],[-75.749,10.18],[-75.749,10.179],[-75.749,10.179],[-75.75,10.179],[-75.749,10.178],[-75.749,10.178],[-75.749,10.177],[-75.749,10.177],[-75.749,10.176],[-75.749,10.175],[-75.749,10.175],[-75.75,10.175],[-75.75,10.175],[-75.749,10.176],[-75.75,10.176],[-75.75,10.176],[-75.75,10.176],[-75.75,10.177],[-75.75,10.177],[-75.75,10.178],[-75.75,10.178],[-75.75,10.178],[-75.751,10.179],[-75.751,10.179],[-75.751,10.179],[-75.751,10.179],[-75.75,10.179],[-75.75,10.179],[-75.75,10.18],[-75.75,10.18],[-75.75,10.18],[-75.75,10.18],[-75.75,10.18],[-75.75,10.181],[-75.75,10.181],[-75.75,10.18]]],[[[-75.776,10.178],[-75.776,10.178],[-75.776,10.178],[-75.776,10.178],[-75.776,10.178],[-75.776,10.178],[-75.776,10.179],[-75.776,10.179],[-75.776,10.179],[-75.776,10.179],[-75.776,10.18],[-75.776,10.18],[-75.776,10.18],[-75.776,10.18],[-75.777,10.18],[-75.777,10.181],[-75.777,10.181],[-75.777,10.181],[-75.777,10.181],[-75.777,10.181],[-75.777,10.181],[-75.777,10.181],[-75.777,10.181],[-75.776,10.181],[-75.776,10.18],[-75.776,10.18],[-75.776,10.18],[-75.776,10.18],[-75.776,10.18],[-75.776,10.18],[-75.776,10.179],[-75.776,10.179],[-75.776,10.179],[-75.776,10.179],[-75.776,10.179],[-75.776,10.179],[-75.776,10.179],[-75.776,10.179],[-75.775,10.178],[-75.776,10.178]]],[[[-75.775,10.181],[-75.775,10.181],[-75.775,10.181],[-75.775,10.181],[-75.775,10.181]]],[[[-75.749,10.182],[-75.749,10.182],[-75.749,10.182],[-75.749,10.182],[-75.749,10.182],[-75.749,10.182],[-75.749,10.182],[-75.749,10.182],[-75.749,10.182],[-75.749,10.182],[-75.749,10.182],[-75.749,10.182],[-75.749,10.182],[-75.749,10.182],[-75.749,10.182],[-75.749,10.182],[-75.749,10.182],[-75.749,10.182],[-75.749,10.182],[-75.749,10.182],[-75.749,10.182],[-75.749,10.182],[-75.749,10.182]]],[[[-75.717,10.183],[-75.717,10.183],[-75.717,10.183],[-75.717,10.183],[-75.716,10.183],[-75.716,10.183],[-75.716,10.182],[-75.717,10.182],[-75.717,10.182],[-75.717,10.182],[-75.717,10.182],[-75.717,10.182],[-75.717,10.182],[-75.718,10.182],[-75.718,10.182],[-75.718,10.182],[-75.718,10.182],[-75.718,10.182],[-75.718,10.182],[-75.718,10.182],[-75.718,10.182],[-75.718,10.183],[-75.719,10.183],[-75.719,10.183],[-75.719,10.183],[-75.718,10.183],[-75.718,10.183],[-75.718,10.183],[-75.718,10.183],[-75.718,10.183],[-75.718,10.183],[-75.717,10.183],[-75.717,10.183]]],[[[-75.722,10.183],[-75.721,10.183],[-75.721,10.183],[-75.721,10.183],[-75.721,10.183],[-75.721,10.183],[-75.722,10.183],[-75.722,10.183],[-75.722,10.183],[-75.722,10.182],[-75.722,10.182],[-75.722,10.182],[-75.722,10.182],[-75.722,10.182],[-75.722,10.182],[-75.722,10.182],[-75.722,10.182],[-75.722,10.182],[-75.723,10.182],[-75.723,10.182],[-75.723,10.182],[-75.723,10.182],[-75.723,10.182],[-75.723,10.182],[-75.723,10.183],[-75.723,10.183],[-75.723,10.183],[-75.723,10.183],[-75.723,10.183],[-75.723,10.183],[-75.723,10.183],[-75.723,10.183],[-75.723,10.183],[-75.723,10.183],[-75.723,10.183],[-75.723,10.183],[-75.722,10.183],[-75.722,10.183],[-75.722,10.183],[-75.722,10.183],[-75.722,10.184],[-75.722,10.184],[-75.722,10.184],[-75.722,10.184],[-75.722,10.184],[-75.722,10.184],[-75.722,10.184],[-75.722,10.184],[-75.722,10.184],[-75.722,10.184],[-75.722,10.184],[-75.722,10.184],[-75.722,10.183],[-75.722,10.183]]],[[[-75.737,10.184],[-75.736,10.183],[-75.732,10.181],[-75.728,10.182],[-75.727,10.183],[-75.726,10.184],[-75.726,10.182],[-75.725,10.182],[-75.724,10.181],[-75.725,10.179],[-75.727,10.178],[-75.727,10.18],[-75.729,10.179],[-75.729,10.178],[-75.729,10.178],[-75.728,10.179],[-75.729,10.177],[-75.732,10.177],[-75.735,10.176],[-75.738,10.172],[-75.74,10.172],[-75.743,10.172],[-75.744,10.171],[-75.747,10.172],[-75.747,10.173],[-75.748,10.176],[-75.748,10.177],[-75.748,10.179],[-75.748,10.181],[-75.749,10.182],[-75.749,10.183],[-75.748,10.182],[-75.747,10.183],[-75.746,10.184],[-75.745,10.183],[-75.746,10.182],[-75.745,10.181],[-75.745,10.181],[-75.744,10.182],[-75.744,10.181],[-75.738,10.18],[-75.737,10.182],[-75.738,10.183],[-75.737,10.184]]],[[[-75.718,10.184],[-75.718,10.184],[-75.718,10.184],[-75.718,10.184],[-75.718,10.184],[-75.718,10.184],[-75.718,10.184],[-75.718,10.184],[-75.718,10.184],[-75.718,10.185],[-75.718,10.185],[-75.718,10.184],[-75.718,10.184],[-75.718,10.184],[-75.718,10.184],[-75.718,10.184],[-75.718,10.184],[-75.718,10.184]]],[[[-75.727,10.184],[-75.727,10.184],[-75.727,10.184],[-75.727,10.184],[-75.727,10.184],[-75.727,10.185],[-75.727,10.185],[-75.727,10.185],[-75.727,10.185],[-75.727,10.185],[-75.727,10.185],[-75.727,10.185],[-75.726,10.185],[-75.726,10.185],[-75.726,10.184],[-75.726,10.184],[-75.726,10.184],[-75.726,10.184],[-75.727,10.184]]],[[[-75.728,10.185],[-75.728,10.185],[-75.728,10.185],[-75.728,10.185],[-75.728,10.185],[-75.728,10.185],[-75.728,10.185],[-75.728,10.184],[-75.728,10.184],[-75.728,10.184],[-75.728,10.184],[-75.728,10.184],[-75.728,10.184],[-75.728,10.184],[-75.728,10.184],[-75.728,10.184],[-75.728,10.184],[-75.728,10.184],[-75.728,10.184],[-75.728,10.184],[-75.728,10.184],[-75.728,10.184],[-75.728,10.184],[-75.728,10.184],[-75.728,10.184],[-75.728,10.184],[-75.728,10.184],[-75.728,10.184],[-75.728,10.184],[-75.728,10.184],[-75.728,10.184],[-75.728,10.184],[-75.728,10.185],[-75.728,10.185],[-75.728,10.185],[-75.728,10.185],[-75.728,10.185],[-75.728,10.185],[-75.728,10.185],[-75.728,10.185],[-75.728,10.185],[-75.728,10.185],[-75.728,10.185],[-75.728,10.185]]],[[[-75.737,10.185],[-75.737,10.185],[-75.737,10.185],[-75.737,10.185],[-75.737,10.185],[-75.737,10.185],[-75.737,10.185],[-75.737,10.185],[-75.737,10.185],[-75.737,10.185],[-75.737,10.185],[-75.737,10.185],[-75.737,10.185],[-75.737,10.185],[-75.737,10.185],[-75.737,10.185],[-75.737,10.185]]],[[[-75.737,10.185],[-75.737,10.185],[-75.737,10.185],[-75.738,10.185],[-75.738,10.185],[-75.738,10.185],[-75.738,10.185],[-75.738,10.185],[-75.738,10.185],[-75.738,10.185],[-75.738,10.185],[-75.737,10.185],[-75.737,10.185],[-75.737,10.185],[-75.737,10.185],[-75.737,10.185],[-75.737,10.185],[-75.737,10.185],[-75.737,10.185]]],[[[-75.58,10.31],[-75.58,10.31],[-75.58,10.309],[-75.58,10.309],[-75.58,10.309],[-75.579,10.307],[-75.578,10.306],[-75.578,10.306],[-75.578,10.306],[-75.578,10.306],[-75.578,10.306],[-75.579,10.305],[-75.579,10.305],[-75.58,10.305],[-75.58,10.305],[-75.58,10.306],[-75.58,10.306],[-75.581,10.307],[-75.581,10.309],[-75.582,10.309],[-75.582,10.309],[-75.582,10.309],[-75.582,10.309],[-75.583,10.31],[-75.583,10.31],[-75.583,10.31],[-75.582,10.31],[-75.582,10.31],[-75.582,10.31],[-75.582,10.31],[-75.581,10.31],[-75.581,10.31],[-75.581,10.31],[-75.581,10.31],[-75.581,10.31],[-75.58,10.31],[-75.58,10.311],[-75.58,10.311],[-75.579,10.311],[-75.579,10.311],[-75.579,10.311],[-75.579,10.31],[-75.58,10.31]]],[[[-75.578,10.315],[-75.578,10.315],[-75.578,10.315],[-75.578,10.315],[-75.578,10.315],[-75.578,10.315],[-75.579,10.314],[-75.578,10.314],[-75.578,10.313],[-75.577,10.313],[-75.577,10.313],[-75.576,10.313],[-75.576,10.313],[-75.575,10.313],[-75.575,10.313],[-75.576,10.312],[-75.578,10.312],[-75.578,10.312],[-75.578,10.312],[-75.579,10.313],[-75.579,10.313],[-75.579,10.314],[-75.579,10.313],[-75.579,10.313],[-75.579,10.313],[-75.579,10.313],[-75.579,10.313],[-75.579,10.314],[-75.579,10.314],[-75.579,10.314],[-75.579,10.314],[-75.579,10.314],[-75.579,10.314],[-75.579,10.315],[-75.579,10.315],[-75.579,10.315],[-75.578,10.315],[-75.578,10.315],[-75.578,10.315],[-75.578,10.315],[-75.578,10.315],[-75.578,10.315],[-75.578,10.315],[-75.578,10.315],[-75.578,10.315],[-75.578,10.315],[-75.578,10.315],[-75.578,10.315]]],[[[-75.575,10.381],[-75.574,10.38],[-75.574,10.378],[-75.571,10.375],[-75.558,10.366],[-75.553,10.366],[-75.549,10.365],[-75.544,10.364],[-75.538,10.357],[-75.543,10.358],[-75.55,10.354],[-75.549,10.351],[-75.546,10.355],[-75.54,10.35],[-75.543,10.345],[-75.543,10.343],[-75.546,10.342],[-75.547,10.339],[-75.549,10.336],[-75.551,10.337],[-75.555,10.341],[-75.558,10.346],[-75.56,10.339],[-75.566,10.345],[-75.58,10.334],[-75.576,10.328],[-75.575,10.327],[-75.576,10.326],[-75.577,10.325],[-75.58,10.323],[-75.581,10.322],[-75.581,10.32],[-75.582,10.319],[-75.587,10.321],[-75.591,10.325],[-75.592,10.341],[-75.59,10.353],[-75.588,10.361],[-75.579,10.372],[-75.577,10.379],[-75.576,10.381],[-75.575,10.381]]],[[[-75.256,10.8],[-75.243,10.659],[-75.157,10.441],[-74.946,10.14],[-74.873,9.849],[-74.749,9.456],[-74.572,9.318],[-74.204,9.105],[-74.131,9.028],[-74.005,9.006],[-73.872,8.906],[-73.833,7.574],[-74.351,7.058],[-74.371,7.12],[-74.386,7.299],[-74.357,7.469],[-74.523,7.879],[-74.821,8.193],[-74.665,8.293],[-74.623,8.34],[-74.571,8.578],[-74.588,8.767],[-74.777,9.037],[-74.906,9.179],[-74.913,9.439],[-75.024,9.516],[-75.183,9.615],[-75.263,9.666],[-75.363,9.646],[-75.476,9.918],[-75.525,10.208],[-75.667,10.159],[-75.58,10.3],[-75.504,10.301],[-75.508,10.349],[-75.523,10.386],[-75.525,10.393],[-75.547,10.414],[-75.553,10.409],[-75.493,10.493],[-75.257,10.8],[-75.256,10.8]]]]}},{"type":"Feature","properties":{"name":"BOYACÁ","code":"15"},"geometry":{"type":"MultiPolygon","coordinates":[[[[-72.174,7.053],[-72.095,6.749],[-72.24,6.422],[-72.387,6.261],[-72.357,6.043],[-72.389,5.901],[-72.297,5.77],[-72.225,5.678],[-72.43,5.542],[-72.589,5.355],[-72.804,5.381],[-72.89,5.314],[-72.97,4.985],[-73.143,4.658],[-73.412,4.881],[-73.489,5.049],[-73.574,5.302],[-73.7,5.45],[-73.841,5.546],[-73.983,5.397],[-74.114,5.474],[-74.152,5.445],[-74.246,5.532],[-74.282,5.699],[-74.43,5.76],[-74.57,6.219],[-74.402,6.066],[-74.228,5.931],[-74.126,5.876],[-73.929,5.741],[-73.717,5.778],[-73.632,5.902],[-73.454,6.079],[-73.456,5.89],[-73.211,5.826],[-72.97,6.021],[-72.734,6.42],[-72.696,6.521],[-72.526,6.596],[-72.406,6.873],[-72.18,7.053],[-72.174,7.053]]]]}},{"type":"Feature","properties":{"name":"CALDAS","code":"17"},"geometry":{"type":"MultiPolygon","coordinates":[[[[-74.672,5.771],[-74.699,5.366],[-74.822,5.318],[-74.888,5.298],[-74.928,5.31],[-74.975,5.296],[-75.015,5.289],[-75.049,5.276],[-75.072,5.245],[-75.103,5.203],[-75.115,5.162],[-75.163,5.169],[-75.224,5.136],[-75.294,5.131],[-75.343,5.075],[-75.427,4.817],[-75.54,4.918],[-75.62,4.963],[-75.7,4.945],[-75.773,5.013],[-75.854,4.931],[-75.902,4.99],[-75.845,5.106],[-75.824,5.258],[-75.737,5.269],[-75.662,5.328],[-75.761,5.386],[-75.853,5.416],[-75.684,5.521],[-75.591,5.519],[-75.532,5.689],[-75.381,5.619],[-75.322,5.52],[-75.302,5.469],[-75.192,5.519],[-75.12,5.564],[-75.093,5.624],[-75.029,5.673],[-74.945,5.726],[-74.83,5.715],[-74.692,5.775],[-74.672,5.771]]]]}},{"type":"Feature","properties":{"name":"CAQUETÁ","code":"18"},"geometry":{"type":"MultiPolygon","coordinates":[[[[-74.799,2.938],[-74.741,2.315],[-74.217,2.012],[-73.523,1.388],[-73.465,1.337],[-73.42,1.251],[-73.392,1.154],[-73.283,1.061],[-73.181,0.999],[-73.003,0.929],[-72.827,1.149],[-72.336,0.874],[-72.175,0.719],[-71.847,0.436],[-71.572,0.203],[-71.662,-0.051],[-72.289,-0.638],[-72.312,-0.652],[-72.342,-0.641],[-72.369,-0.625],[-72.403,-0.605],[-72.405,-0.576],[-73.325,-0.521],[-73.837,-0.401],[-74.497,-0.137],[-74.673,0.111],[-74.982,0.319],[-75.237,0.649],[-75.865,0.903],[-76.151,1.104],[-76.283,1.153],[-76.285,1.251],[-76.214,1.345],[-76.17,1.51],[-76.148,1.546],[-76.156,1.57],[-76.136,1.574],[-75.934,1.693],[-75.616,1.997],[-75.18,2.509],[-74.801,2.938],[-74.799,2.938]]]]}},{"type":"Feature","properties":{"name":"CAUCA","code":"19"},"geometry":{"type":"MultiPolygon","coordinates":[[[[-76.459,3.329],[-76.356,3.289],[-76.307,3.284],[-76.277,3.277],[-76.204,3.25],[-76.084,3.217],[-76.055,3.044],[-75.783,2.763],[-75.803,2.616],[-75.844,2.465],[-75.988,2.482],[-76.239,2.228],[-76.59,2.095],[-76.396,1.737],[-76.163,1.583],[-76.155,1.555],[-76.158,1.527],[-76.202,1.361],[-76.291,1.246],[-76.251,1.119],[-76.092,1.056],[-76.414,0.961],[-76.542,1.181],[-76.689,1.456],[-76.897,1.359],[-76.852,1.632],[-77.126,1.659],[-77.263,1.67],[-77.305,1.8],[-77.227,1.991],[-77.311,2.128],[-77.487,2.217],[-77.833,2.702],[-77.67,2.948],[-77.383,3.185],[-77.135,3.164],[-76.945,3.115],[-76.749,3.196],[-76.625,3.117],[-76.491,3.186],[-76.459,3.325],[-76.459,3.329]]]]}},{"type":"Feature","properties":{"name":"CESAR","code":"20"},"geometry":{"type":"MultiPolygon","coordinates":[[[[-73.453,10.868],[-73.257,10.793],[-73.131,10.684],[-73.124,10.528],[-73.145,10.423],[-72.887,10.394],[-72.958,10.052],[-73.157,9.522],[-73.434,8.947],[-73.562,8.507],[-73.525,8.383],[-73.436,8.363],[-73.402,8.245],[-73.347,7.897],[-73.509,7.684],[-73.75,7.773],[-73.721,7.841],[-73.706,7.968],[-73.789,8.753],[-73.907,9.178],[-74.006,9.4],[-74.074,9.452],[-73.946,9.594],[-73.811,9.689],[-73.825,9.713],[-73.839,9.736],[-73.841,9.79],[-73.894,9.834],[-73.927,9.892],[-73.956,9.927],[-74.031,9.992],[-74.074,10.121],[-74.053,10.185],[-74.001,10.265],[-73.932,10.358],[-73.841,10.399],[-73.712,10.433],[-73.648,10.488],[-73.576,10.499],[-73.599,10.618],[-73.455,10.868],[-73.453,10.868]]]]}},{"type":"Feature","properties":{"name":"CÓRDOBA","code":"23"},"geometry":{"type":"MultiPolygon","coordinates":[[[[-75.881,9.424],[-75.81,9.398],[-75.718,9.413],[-75.682,9.355],[-75.595,9.311],[-75.511,9.26],[-75.492,9.26],[-75.461,9.225],[-75.452,9.147],[-75.305,9.089],[-75.174,8.958],[-75.262,8.896],[-75.357,8.835],[-75.34,8.695],[-75.299,8.499],[-75.057,8.465],[-74.886,8.433],[-74.798,8.307],[-74.833,8.212],[-74.912,8.103],[-75.142,8.052],[-75.232,8.052],[-75.29,7.968],[-75.418,7.826],[-75.601,7.593],[-75.739,7.609],[-75.771,7.534],[-75.813,7.446],[-75.846,7.348],[-76.494,7.639],[-76.425,8.074],[-76.299,8.313],[-76.26,8.58],[-76.411,8.767],[-76.414,8.88],[-76.415,8.882],[-76.312,8.963],[-76.26,9.029],[-76.17,9.213],[-76.087,9.329],[-75.941,9.445],[-75.881,9.424]]]]}},{"type":"Feature","properties":{"name":"CUNDINAMARCA","code":"25"},"geometry":{"type":"MultiPolygon","coordinates":[[[[-74.328,5.824],[-74.307,5.606],[-74.16,5.448],[-74.108,5.473],[-73.904,5.483],[-73.757,5.486],[-73.593,5.347],[-73.493,5.043],[-73.366,4.82],[-73.199,4.266],[-73.554,4.335],[-73.734,4.472],[-73.938,4.135],[-74.148,4.014],[-74.134,4.035],[-74.125,4.06],[-74.128,4.094],[-74.112,4.165],[-74.12,4.18],[-74.133,4.204],[-74.136,4.23],[-74.152,4.256],[-74.098,4.356],[-74.013,4.56],[-74.007,4.665],[-74.004,4.818],[-74.083,4.818],[-74.115,4.779],[-74.182,4.65],[-74.183,4.592],[-74.176,4.506],[-74.216,4.29],[-74.35,4.078],[-74.371,3.886],[-74.447,3.755],[-74.483,4.153],[-74.687,4.207],[-74.804,4.462],[-74.725,5.201],[-74.641,5.539],[-74.333,5.83],[-74.328,5.824]]]]}},{"type":"Feature","properties":{"name":"CHOCÓ","code":"27"},"geometry":{"type":"MultiPolygon","coordinates":[[[[-77.368,8.677],[-77.081,8.327],[-76.526,7.243],[-76.589,6.998],[-76.934,6.71],[-76.635,6.176],[-76.065,5.96],[-76.203,5.341],[-76.181,4.833],[-76.554,4.401],[-76.891,4.073],[-77.483,4.285],[-77.351,4.415],[-77.409,5.386],[-77.449,5.485],[-77.438,5.609],[-77.246,5.797],[-77.33,5.973],[-77.374,6.039],[-77.469,6.282],[-77.357,6.4],[-77.378,6.608],[-77.537,6.669],[-77.66,6.866],[-77.672,7.018],[-77.829,7.162],[-77.767,7.462],[-77.737,7.584],[-77.7,7.693],[-77.584,7.514],[-77.475,7.621],[-77.396,7.745],[-77.351,7.805],[-77.302,7.902],[-77.209,8.007],[-77.233,8.123],[-77.289,8.249],[-77.358,8.365],[-77.456,8.508],[-77.391,8.585],[-77.37,8.676],[-77.368,8.677]]]]}},{"type":"Feature","properties":{"name":"HUILA","code":"41"},"geometry":{"type":"MultiPolygon","coordinates":[[[[-74.519,3.836],[-74.546,3.551],[-74.793,3.056],[-75.072,2.746],[-75.162,2.558],[-75.373,2.324],[-75.603,2.004],[-75.783,1.762],[-75.936,1.688],[-76.031,1.586],[-76.161,1.585],[-76.241,1.681],[-76.422,1.752],[-76.598,2],[-76.589,2.094],[-76.521,2.135],[-76.264,2.258],[-76.139,2.213],[-76.005,2.459],[-75.968,2.5],[-75.873,2.432],[-75.818,2.482],[-75.838,2.557],[-75.797,2.625],[-75.767,2.677],[-75.779,2.759],[-75.847,2.843],[-75.907,2.9],[-75.645,2.995],[-75.576,3.226],[-75.517,3.326],[-75.46,3.355],[-75.371,3.401],[-75.279,3.385],[-75.039,3.429],[-75.057,3.367],[-74.932,3.286],[-74.775,3.471],[-74.701,3.619],[-74.624,3.701],[-74.519,3.836]]]]}},{"type":"Feature","properties":{"name":"LA GUAJIRA","code":"44"},"geometry":{"type":"MultiPolygon","coordinates":[[[[-71.652,12.456],[-71.285,12.344],[-71.192,12.213],[-71.288,11.912],[-71.311,11.907],[-72.121,11.374],[-72.545,10.963],[-72.727,10.698],[-72.986,10.401],[-73.142,10.436],[-73.148,10.509],[-73.087,10.587],[-73.208,10.708],[-73.255,10.812],[-73.416,10.867],[-73.633,10.9],[-73.661,10.998],[-73.646,11.056],[-73.643,11.101],[-73.643,11.144],[-73.608,11.173],[-73.582,11.215],[-73.554,11.255],[-73.14,11.408],[-72.925,11.546],[-72.791,11.659],[-72.446,11.779],[-72.143,12.174],[-72.084,12.232],[-71.982,12.162],[-71.967,12.151],[-71.967,12.165],[-71.96,12.179],[-71.962,12.159],[-71.94,12.154],[-71.924,12.163],[-71.901,12.191],[-71.947,12.267],[-71.747,12.387],[-71.659,12.408],[-71.663,12.459],[-71.652,12.456]]]]}},{"type":"Feature","properties":{"name":"MAGDALENA","code":"47"},"geometry":{"type":"MultiPolygon","coordinates":[[[[-74.042,11.342],[-73.605,11.261],[-73.589,11.19],[-73.647,11.137],[-73.641,11.07],[-73.649,10.973],[-73.564,10.723],[-73.565,10.503],[-73.645,10.484],[-73.753,10.42],[-73.9,10.382],[-73.966,10.288],[-74.044,10.196],[-74.072,10.118],[-74.004,9.954],[-73.946,9.912],[-73.905,9.853],[-73.842,9.796],[-73.835,9.732],[-73.818,9.708],[-73.807,9.644],[-74.121,9.48],[-74.009,9.399],[-73.869,9.12],[-73.951,8.993],[-74.135,9.028],[-74.336,9.225],[-74.73,9.418],[-74.88,9.863],[-74.812,10.458],[-74.846,11.075],[-74.443,10.976],[-74.218,11.083],[-74.241,11.175],[-74.234,11.212],[-74.236,11.223],[-74.221,11.252],[-74.2,11.26],[-74.163,11.299],[-74.11,11.337],[-74.042,11.342]]]]}},{"type":"Feature","properties":{"name":"META","code":"50"},"geometry":{"type":"MultiPolygon","coordinates":[[[[-71.078,4.899],[-71.331,2.888],[-71.463,2.899],[-71.617,2.843],[-71.861,2.842],[-72.078,2.824],[-72.218,2.778],[-72.421,2.733],[-72.567,2.663],[-72.935,2.524],[-72.965,2.449],[-73.141,2.401],[-73.235,2.389],[-73.353,2.34],[-73.438,2.345],[-73.515,2.354],[-73.618,2.334],[-73.701,1.659],[-74.372,2.065],[-74.592,2.202],[-74.658,2.491],[-74.668,2.827],[-74.867,2.983],[-74.632,3.374],[-74.408,3.738],[-74.298,3.883],[-74.123,4.001],[-74.015,4.099],[-73.822,4.175],[-73.784,4.3],[-73.717,4.511],[-73.585,4.431],[-73.554,4.343],[-73.512,4.291],[-73.342,4.316],[-73.139,4.213],[-72.894,4.474],[-72.604,4.315],[-72.341,4.364],[-71.908,4.465],[-71.086,4.894],[-71.078,4.899]]]]}},{"type":"Feature","properties":{"name":"NARIÑO","code":"52"},"geometry":{"type":"MultiPolygon","coordinates":[[[[-78.89,1.51],[-78.89,1.51],[-78.89,1.51],[-78.89,1.51],[-78.89,1.51],[-78.89,1.51],[-78.89,1.51],[-78.89,1.51],[-78.89,1.51],[-78.89,1.51],[-78.889,1.51],[-78.889,1.509],[-78.889,1.509],[-78.889,1.509],[-78.889,1.509],[-78.889,1.509],[-78.889,1.509],[-78.889,1.509],[-78.889,1.509],[-78.89,1.509],[-78.89,1.509],[-78.89,1.509],[-78.891,1.509],[-78.891,1.509],[-78.892,1.509],[-78.892,1.51],[-78.892,1.51],[-78.892,1.51],[-78.892,1.51],[-78.892,1.51],[-78.892,1.51],[-78.891,1.51],[-78.891,1.51],[-78.891,1.51],[-78.891,1.51],[-78.89,1.51],[-78.89,1.51],[-78.89,1.51],[-78.89,1.51],[-78.89,1.51],[-78.89,1.51],[-78.89,1.51],[-78.89,1.51],[-78.89,1.51],[-78.89,1.51],[-78.89,1.51],[-78.89,1.51],[-78.89,1.51],[-78.89,1.51],[-78.89,1.51],[-78.89,1.51],[-78.89,1.51],[-78.89,1.51],[-78.89,1.51],[-78.89,1.51],[-78.89,1.51]]],[[[-78.14,2.676],[-77.962,2.639],[-77.477,2.275],[-77.311,2.131],[-77.263,1.997],[-77.288,1.85],[-77.316,1.678],[-77.172,1.678],[-77.055,1.701],[-76.928,1.479],[-76.974,1.243],[-77.117,0.862],[-77.113,0.373],[-77.517,0.494],[-77.636,0.698],[-77.665,0.786],[-77.699,0.841],[-77.766,0.84],[-77.827,0.805],[-78.057,0.889],[-78.115,0.932],[-78.299,1.149],[-78.548,1.244],[-78.69,1.334],[-78.814,1.437],[-78.824,1.464],[-78.96,1.689],[-78.785,1.801],[-78.776,1.808],[-78.767,1.82],[-78.729,1.821],[-78.747,1.807],[-78.762,1.813],[-78.776,1.803],[-78.775,1.794],[-78.7,1.771],[-78.55,1.833],[-78.594,1.955],[-78.67,1.989],[-78.564,2.433],[-78.157,2.683],[-78.14,2.676]]]]}},{"type":"Feature","properties":{"name":"NORTE DE SANTANDER","code":"54"},"geometry":{"type":"MultiPolygon","coordinates":[[[[-73.004,9.28],[-72.903,9.098],[-72.764,9.091],[-72.389,8.32],[-72.369,8.196],[-72.352,8.075],[-72.408,8.034],[-72.422,7.994],[-72.449,7.97],[-72.477,7.922],[-72.449,7.873],[-72.449,7.833],[-72.469,7.79],[-72.471,7.746],[-72.473,7.699],[-72.467,7.531],[-72.327,7.379],[-72.116,7.033],[-72.326,6.922],[-72.55,6.898],[-72.742,7.005],[-72.843,7.179],[-72.876,7.266],[-72.992,7.618],[-73.328,7.547],[-73.519,7.629],[-73.6,7.704],[-73.579,7.737],[-73.488,7.675],[-73.346,7.835],[-73.276,7.951],[-73.419,8.185],[-73.348,8.389],[-73.437,8.356],[-73.485,8.382],[-73.521,8.386],[-73.559,8.485],[-73.547,8.564],[-73.448,8.867],[-73.278,9.163],[-73.027,9.28],[-73.004,9.28]]]]}},{"type":"Feature","properties":{"name":"QUINDIO","code":"63"},"geometry":{"type":"MultiPolygon","coordinates":[[[[-75.702,4.72],[-75.67,4.706],[-75.641,4.706],[-75.622,4.702],[-75.605,4.708],[-75.587,4.705],[-75.549,4.701],[-75.51,4.687],[-75.443,4.68],[-75.384,4.706],[-75.417,4.63],[-75.482,4.583],[-75.528,4.515],[-75.577,4.453],[-75.59,4.364],[-75.604,4.275],[-75.658,4.199],[-75.707,4.127],[-75.751,4.081],[-75.819,4.098],[-75.842,4.127],[-75.833,4.172],[-75.825,4.216],[-75.807,4.257],[-75.794,4.307],[-75.797,4.362],[-75.84,4.402],[-75.883,4.412],[-75.885,4.441],[-75.873,4.472],[-75.88,4.531],[-75.864,4.573],[-75.864,4.615],[-75.827,4.661],[-75.808,4.656],[-75.789,4.66],[-75.775,4.654],[-75.76,4.652],[-75.737,4.655],[-75.717,4.653],[-75.704,4.72],[-75.702,4.72]]]]}},{"type":"Feature","properties":{"name":"RISARALDA","code":"66"},"geometry":{"type":"MultiPolygon","coordinates":[[[[-76.008,5.564],[-75.879,5.487],[-75.853,5.403],[-75.807,5.363],[-75.746,5.384],[-75.667,5.354],[-75.668,5.267],[-75.737,5.27],[-75.781,5.279],[-75.812,5.236],[-75.826,5.16],[-75.882,5.13],[-75.904,5.009],[-75.869,4.946],[-75.851,4.931],[-75.792,4.938],[-75.743,5.038],[-75.717,4.974],[-75.672,4.944],[-75.629,4.971],[-75.596,4.927],[-75.519,4.923],[-75.448,4.865],[-75.393,4.805],[-75.44,4.684],[-75.551,4.702],[-75.607,4.708],[-75.65,4.708],[-75.716,4.712],[-75.787,4.718],[-75.815,4.729],[-75.868,4.773],[-75.928,4.787],[-75.939,4.861],[-76.002,4.921],[-76.034,4.957],[-76.063,5.015],[-76.138,5.2],[-76.193,5.312],[-76.191,5.408],[-76.012,5.566],[-76.008,5.564]]]]}},{"type":"Feature","properties":{"name":"SANTANDER","code":"68"},"geometry":{"type":"MultiPolygon","coordinates":[[[[-73.774,8.108],[-73.72,7.967],[-73.675,7.922],[-73.724,7.849],[-73.737,7.833],[-73.747,7.802],[-73.758,7.762],[-73.59,7.698],[-73.535,7.657],[-73.397,7.573],[-73.227,7.628],[-72.979,7.543],[-72.861,7.284],[-72.832,7.207],[-72.846,7.133],[-72.677,6.994],[-72.551,6.908],[-72.488,6.687],[-72.589,6.471],[-72.714,6.546],[-72.755,6.494],[-72.75,6.225],[-72.99,5.992],[-73.219,5.979],[-73.324,5.852],[-73.439,5.898],[-73.388,6.024],[-73.524,6.077],[-73.632,5.913],[-73.658,5.721],[-73.786,5.743],[-73.916,5.737],[-74.024,5.79],[-74.19,5.884],[-74.246,5.895],[-74.31,6.074],[-74.434,6.09],[-74.521,6.243],[-74.196,6.721],[-73.906,7.375],[-73.77,8.117],[-73.774,8.108]]]]}},{"type":"Feature","properties":{"name":"SUCRE","code":"70"},"geometry":{"type":"MultiPolygon","coordinates":[[[[-75.523,10.092],[-75.405,9.891],[-75.368,9.63],[-75.331,9.625],[-75.27,9.67],[-75.198,9.646],[-75.184,9.607],[-75.081,9.536],[-75.029,9.505],[-74.979,9.445],[-74.923,9.394],[-74.905,9.22],[-74.861,9.14],[-74.751,9.042],[-74.582,8.849],[-74.607,8.72],[-74.595,8.594],[-74.533,8.466],[-74.617,8.345],[-74.643,8.319],[-74.677,8.294],[-74.8,8.334],[-74.949,8.503],[-75.22,8.485],[-75.351,8.697],[-75.338,8.853],[-75.209,8.918],[-75.289,9.08],[-75.458,9.154],[-75.469,9.246],[-75.502,9.282],[-75.59,9.298],[-75.688,9.36],[-75.68,9.405],[-75.624,9.443],[-75.598,9.488],[-75.586,9.523],[-75.58,9.542],[-75.598,9.666],[-75.621,9.816],[-75.574,10.086],[-75.523,10.092]]]]}},{"type":"Feature","properties":{"name":"TOLIMA","code":"73"},"geometry":{"type":"MultiPolygon","coordinates":[[[[-74.822,5.317],[-74.728,5.236],[-74.722,5.123],[-74.802,4.702],[-74.821,4.288],[-74.705,4.228],[-74.549,4.262],[-74.479,4.136],[-74.535,3.861],[-74.653,3.683],[-74.775,3.52],[-74.982,3.284],[-75.041,3.407],[-75.275,3.383],[-75.401,3.374],[-75.503,3.324],[-75.577,3.196],[-75.784,2.905],[-76.073,3.049],[-76.059,3.204],[-76.061,3.35],[-75.997,3.54],[-75.956,3.667],[-75.856,3.851],[-75.748,4.065],[-75.596,4.305],[-75.479,4.584],[-75.344,4.921],[-75.326,5.096],[-75.269,5.138],[-75.205,5.15],[-75.15,5.166],[-75.115,5.17],[-75.095,5.215],[-75.066,5.249],[-75.041,5.277],[-75.011,5.293],[-74.971,5.296],[-74.926,5.31],[-74.887,5.298],[-74.824,5.319],[-74.822,5.317]]]]}},{"type":"Feature","properties":{"name":"VALLE DEL CAUCA","code":"76"},"geometry":{"type":"MultiPolygon","coordinates":[[[[-77.238,4.04],[-77.238,4.04],[-77.237,4.04],[-77.237,4.042],[-77.236,4.041],[-77.234,4.041],[-77.234,4.041],[-77.233,4.041],[-77.232,4.042],[-77.231,4.041],[-77.23,4.041],[-77.229,4.042],[-77.229,4.042],[-77.228,4.042],[-77.228,4.041],[-77.227,4.041],[-77.227,4.041],[-77.226,4.04],[-77.227,4.039],[-77.228,4.037],[-77.229,4.036],[-77.229,4.036],[-77.229,4.035],[-77.23,4.034],[-77.23,4.033],[-77.231,4.032],[-77.232,4.033],[-77.233,4.031],[-77.233,4.032],[-77.232,4.034],[-77.232,4.035],[-77.231,4.036],[-77.232,4.037],[-77.233,4.037],[-77.233,4.036],[-77.234,4.036],[-77.234,4.037],[-77.234,4.038],[-77.234,4.037],[-77.235,4.037],[-77.235,4.036],[-77.235,4.034],[-77.235,4.032],[-77.236,4.032],[-77.237,4.033],[-77.237,4.034],[-77.237,4.035],[-77.239,4.036],[-77.24,4.036],[-77.241,4.038],[-77.241,4.04],[-77.24,4.041],[-77.239,4.042],[-77.238,4.042],[-77.238,4.04]]],[[[-76.079,5.045],[-76.002,4.92],[-75.921,4.76],[-75.798,4.721],[-75.744,4.653],[-75.832,4.65],[-75.888,4.429],[-75.811,4.245],[-75.741,4.06],[-75.916,3.754],[-75.989,3.575],[-76.049,3.322],[-76.161,3.234],[-76.24,3.277],[-76.284,3.283],[-76.312,3.281],[-76.357,3.289],[-76.437,3.314],[-76.477,3.232],[-76.557,3.106],[-76.697,3.118],[-76.822,3.21],[-76.968,3.119],[-77.152,3.17],[-77.384,3.179],[-77.362,3.432],[-77.191,3.698],[-77.063,3.873],[-77.07,3.879],[-77.079,3.893],[-77.234,3.835],[-77.317,3.951],[-77.202,4.035],[-77.302,4.041],[-77.322,3.988],[-77.134,4.157],[-76.895,4.071],[-76.54,4.021],[-76.447,4.441],[-76.286,4.711],[-76.081,5.045],[-76.079,5.045]]]]}},{"type":"Feature","properties":{"name":"ARAUCA","code":"81"},"geometry":{"type":"MultiPolygon","coordinates":[[[[-70.68,7.094],[-70.533,7.04],[-70.415,6.981],[-70.271,6.941],[-70.122,6.979],[-69.468,6.076],[-69.542,6.044],[-70.037,6.158],[-70.203,6.29],[-70.396,6.293],[-70.547,6.243],[-70.724,6.217],[-70.935,6.226],[-71.223,6.297],[-71.331,6.246],[-71.436,6.24],[-71.531,6.219],[-71.626,6.225],[-71.903,6.16],[-72.159,6.073],[-72.22,6.104],[-72.277,6.137],[-72.285,6.181],[-72.307,6.206],[-72.327,6.22],[-72.354,6.253],[-72.359,6.316],[-72.349,6.336],[-72.309,6.358],[-72.282,6.416],[-72.227,6.429],[-72.173,6.482],[-72.112,6.613],[-72.069,6.76],[-72.032,6.833],[-71.918,7.016],[-71.612,7.043],[-71.332,7.017],[-71.113,6.996],[-70.867,7.057],[-70.682,7.099],[-70.68,7.094]]]]}},{"type":"Feature","properties":{"name":"CASANARE","code":"85"},"geometry":{"type":"MultiPolygon","coordinates":[[[[-72.339,6.345],[-72.365,6.305],[-72.328,6.22],[-72.285,6.197],[-72.266,6.126],[-72.165,6.077],[-71.7,6.192],[-71.501,6.213],[-71.344,6.236],[-71.06,6.255],[-70.68,6.22],[-70.426,6.292],[-70.111,6.233],[-69.899,5.943],[-70.267,5.565],[-70.569,5.442],[-70.834,5.169],[-71.005,4.98],[-71.44,4.719],[-72.175,4.433],[-72.464,4.322],[-72.801,4.38],[-73.017,4.648],[-73.039,4.939],[-72.927,5.099],[-72.928,5.209],[-72.884,5.35],[-72.828,5.367],[-72.722,5.311],[-72.593,5.355],[-72.482,5.488],[-72.425,5.554],[-72.362,5.527],[-72.248,5.685],[-72.289,5.751],[-72.35,5.811],[-72.403,5.901],[-72.328,5.912],[-72.355,6.043],[-72.374,6.142],[-72.364,6.326],[-72.339,6.345]]]]}},{"type":"Feature","properties":{"name":"PUTUMAYO","code":"86"},"geometry":{"type":"MultiPolygon","coordinates":[[[[-76.671,1.467],[-76.574,1.384],[-76.543,1.222],[-76.553,1.12],[-76.53,1.035],[-76.405,0.974],[-76.24,0.965],[-76.123,1.007],[-75.976,1.062],[-75.768,0.859],[-75.473,0.766],[-75.233,0.579],[-75.015,0.467],[-74.982,0.307],[-74.859,0.221],[-74.675,0.127],[-74.701,0.045],[-74.622,-0.077],[-74.057,-0.274],[-73.901,-0.368],[-74.469,-0.493],[-74.57,-0.415],[-74.729,-0.344],[-75.052,-0.122],[-75.527,-0.028],[-75.8,0.048],[-75.985,0.257],[-76.07,0.334],[-76.156,0.385],[-76.23,0.393],[-76.412,0.328],[-76.895,0.247],[-77.09,0.419],[-77.123,0.598],[-77.086,0.928],[-77.095,1.101],[-76.975,1.241],[-76.915,1.342],[-76.866,1.376],[-76.776,1.411],[-76.678,1.465],[-76.671,1.467]]]]}},{"type":"Feature","properties":{"name":"ARCHIPIÉLAGO DE SAN ANDRÉS, PROVIDENCIA Y SANTA CATALINA","code":"88"},"geometry":{"type":"MultiPolygon","coordinates":[[[[-81.688,12.55],[-81.689,12.55],[-81.689,12.55],[-81.689,12.55],[-81.689,12.55],[-81.689,12.55],[-81.689,12.55],[-81.689,12.55],[-81.689,12.55],[-81.689,12.55],[-81.689,12.55],[-81.689,12.55],[-81.689,12.55],[-81.689,12.55],[-81.689,12.55],[-81.689,12.55],[-81.689,12.55],[-81.689,12.55],[-81.689,12.551],[-81.689,12.551],[-81.689,12.551],[-81.689,12.551],[-81.689,12.551],[-81.689,12.551],[-81.689,12.551],[-81.689,12.551],[-81.689,12.551],[-81.689,12.551],[-81.689,12.551],[-81.689,12.551],[-81.689,12.551],[-81.688,12.551],[-81.688,12.551],[-81.688,12.551],[-81.688,12.551],[-81.688,12.551],[-81.688,12.55],[-81.688,12.55],[-81.688,12.55],[-81.688,12.55],[-81.688,12.55],[-81.688,12.55],[-81.688,12.55],[-81.688,12.55],[-81.688,12.55]]],[[[-81.689,12.552],[-81.689,12.552],[-81.689,12.552],[-81.689,12.553],[-81.689,12.553],[-81.689,12.553],[-81.689,12.553],[-81.689,12.553],[-81.689,12.553],[-81.689,12.553],[-81.689,12.553],[-81.689,12.553],[-81.689,12.553],[-81.689,12.553],[-81.689,12.553],[-81.689,12.553],[-81.689,12.553],[-81.689,12.553],[-81.689,12.553],[-81.689,12.553],[-81.689,12.553],[-81.689,12.553],[-81.689,12.553],[-81.689,12.553],[-81.689,12.553],[-81.689,12.553],[-81.689,12.553],[-81.689,12.553],[-81.689,12.553],[-81.689,12.553],[-81.689,12.553],[-81.689,12.553],[-81.689,12.553],[-81.689,12.553],[-81.689,12.553],[-81.689,12.553],[-81.689,12.553],[-81.689,12.552],[-81.689,12.552]]],[[[-81.704,12.595],[-81.703,12.593],[-81.694,12.586],[-81.689,12.583],[-81.688,12.581],[-81.688,12.58],[-81.691,12.58],[-81.692,12.58],[-81.694,12.58],[-81.696,12.58],[-81.698,12.579],[-81.7,12.572],[-81.707,12.57],[-81.707,12.571],[-81.705,12.568],[-81.703,12.567],[-81.701,12.565],[-81.706,12.564],[-81.704,12.561],[-81.704,12.554],[-81.704,12.544],[-81.707,12.537],[-81.707,12.533],[-81.708,12.529],[-81.713,12.523],[-81.715,12.514],[-81.719,12.497],[-81.728,12.481],[-81.735,12.489],[-81.731,12.502],[-81.73,12.514],[-81.729,12.523],[-81.729,12.526],[-81.735,12.533],[-81.732,12.544],[-81.73,12.56],[-81.723,12.57],[-81.722,12.576],[-81.716,12.585],[-81.709,12.593],[-81.704,12.595]]],[[[-81.689,12.599],[-81.69,12.599],[-81.69,12.599],[-81.69,12.599],[-81.69,12.599],[-81.69,12.599],[-81.69,12.599],[-81.69,12.599],[-81.691,12.599],[-81.691,12.599],[-81.691,12.599],[-81.691,12.6],[-81.69,12.6],[-81.69,12.6],[-81.69,12.6],[-81.69,12.6],[-81.69,12.6],[-81.69,12.601],[-81.69,12.601],[-81.69,12.601],[-81.69,12.601],[-81.69,12.601],[-81.69,12.601],[-81.69,12.601],[-81.689,12.601],[-81.689,12.601],[-81.689,12.601],[-81.689,12.601],[-81.689,12.601],[-81.689,12.6],[-81.689,12.6],[-81.689,12.6],[-81.689,12.6],[-81.689,12.6],[-81.689,12.6],[-81.689,12.6],[-81.689,12.6],[-81.689,12.6],[-81.689,12.599],[-81.689,12.599],[-81.689,12.599],[-81.689,12.599]]],[[[-81.364,13.386],[-81.359,13.379],[-81.354,13.377],[-81.354,13.376],[-81.355,13.375],[-81.355,13.375],[-81.356,13.374],[-81.356,13.374],[-81.356,13.373],[-81.357,13.373],[-81.357,13.373],[-81.357,13.372],[-81.358,13.372],[-81.358,13.372],[-81.358,13.371],[-81.358,13.371],[-81.358,13.371],[-81.358,13.371],[-81.358,13.371],[-81.358,13.371],[-81.357,13.371],[-81.357,13.37],[-81.357,13.37],[-81.357,13.37],[-81.357,13.37],[-81.357,13.37],[-81.357,13.37],[-81.357,13.368],[-81.354,13.362],[-81.354,13.361],[-81.35,13.357],[-81.356,13.352],[-81.36,13.334],[-81.37,13.33],[-81.382,13.323],[-81.391,13.323],[-81.393,13.348],[-81.386,13.368],[-81.378,13.37],[-81.37,13.376],[-81.365,13.386],[-81.364,13.386]]],[[[-81.371,13.394],[-81.37,13.394],[-81.37,13.394],[-81.369,13.394],[-81.37,13.393],[-81.371,13.392],[-81.371,13.391],[-81.371,13.389],[-81.371,13.388],[-81.371,13.387],[-81.37,13.387],[-81.37,13.387],[-81.369,13.387],[-81.369,13.386],[-81.37,13.384],[-81.37,13.383],[-81.372,13.383],[-81.377,13.382],[-81.377,13.383],[-81.378,13.383],[-81.378,13.384],[-81.379,13.384],[-81.379,13.385],[-81.38,13.385],[-81.38,13.386],[-81.381,13.386],[-81.381,13.387],[-81.38,13.389],[-81.38,13.39],[-81.38,13.392],[-81.379,13.392],[-81.378,13.392],[-81.378,13.393],[-81.377,13.393],[-81.376,13.394],[-81.375,13.393],[-81.374,13.394],[-81.373,13.394],[-81.372,13.394],[-81.372,13.394],[-81.371,13.395],[-81.371,13.394]]]]}},{"type":"Feature","properties":{"name":"AMAZONAS","code":"91"},"geometry":{"type":"MultiPolygon","coordinates":[[[[-71.145,0.056],[-70.462,-0.492],[-70.302,-0.525],[-70.282,-0.816],[-70.243,-1.021],[-70.137,-1.011],[-69.931,-0.95],[-69.939,-1.097],[-69.653,-1.11],[-69.56,-1.194],[-69.929,-4.197],[-70.367,-3.813],[-70.077,-2.663],[-70.216,-2.658],[-70.39,-2.512],[-70.639,-2.411],[-70.964,-2.241],[-71.128,-2.334],[-71.32,-2.382],[-71.486,-2.355],[-71.744,-2.158],[-72.093,-2.386],[-72.756,-2.426],[-73.175,-2.197],[-73.115,-1.935],[-73.21,-1.757],[-73.316,-1.828],[-73.501,-1.733],[-73.499,-1.564],[-73.553,-1.407],[-73.718,-1.255],[-73.922,-1.123],[-74.024,-1.006],[-74.088,-0.468],[-73.067,-0.586],[-72.406,-0.587],[-72.389,-0.616],[-72.35,-0.64],[-72.314,-0.652],[-72.288,-0.635],[-71.187,0.097],[-71.145,0.056]]]]}},{"type":"Feature","properties":{"name":"GUAINÍA","code":"94"},"geometry":{"type":"MultiPolygon","coordinates":[[[[-67.676,3.912],[-67.302,2.455],[-67.101,1.26],[-67.627,2.021],[-68.245,1.914],[-68.276,1.847],[-68.242,1.794],[-68.192,1.737],[-69.482,1.75],[-69.603,1.741],[-69.782,1.698],[-69.902,1.744],[-70.023,1.763],[-70.084,1.805],[-70.11,1.832],[-70.177,1.878],[-70.151,1.948],[-70.135,1.981],[-70.114,2.019],[-70.117,2.056],[-69.999,2.226],[-70.513,2.252],[-70.633,2.334],[-70.68,2.438],[-70.753,2.534],[-70.873,2.563],[-70.161,3.199],[-70.116,3.302],[-69.721,3.57],[-69.629,3.569],[-69.496,3.665],[-69.346,3.683],[-69.214,3.697],[-69.128,3.673],[-68.939,3.687],[-68.849,3.696],[-68.768,3.754],[-68.681,3.802],[-68.563,3.791],[-68.465,3.85],[-67.691,3.95],[-67.676,3.912]]]]}},{"type":"Feature","properties":{"name":"GUAVIARE","code":"95"},"geometry":{"type":"MultiPolygon","coordinates":[[[[-71.313,2.925],[-70.9,2.563],[-70.743,2.516],[-70.661,2.385],[-70.549,2.286],[-70.023,2.181],[-70.297,2.016],[-70.528,1.956],[-70.667,1.905],[-70.782,1.922],[-70.908,1.896],[-71.019,1.821],[-71.222,1.7],[-71.304,1.701],[-71.443,1.504],[-71.489,1.372],[-71.522,1.316],[-71.542,1.275],[-71.543,1.229],[-71.529,1.188],[-71.566,1.126],[-71.582,1.097],[-71.581,1.061],[-71.628,1.018],[-71.711,0.99],[-71.77,0.94],[-72.266,0.795],[-72.739,1.151],[-73.005,0.92],[-73.222,1.004],[-73.335,1.105],[-73.412,1.24],[-73.469,1.344],[-73.613,1.521],[-73.517,2.335],[-73.31,2.344],[-72.987,2.451],[-72.537,2.683],[-72.143,2.866],[-71.669,2.838],[-71.313,2.925]]]]}},{"type":"Feature","properties":{"name":"VAUPÉS","code":"97"},"geometry":{"type":"MultiPolygon","coordinates":[[[[-70.11,2.08],[-70.12,1.997],[-70.175,1.905],[-70.097,1.817],[-69.951,1.746],[-69.425,1.045],[-69.219,1.022],[-69.161,0.653],[-69.459,0.73],[-69.748,0.62],[-70.058,-0.151],[-69.936,-0.303],[-69.881,-0.335],[-69.832,-0.359],[-69.767,-0.4],[-69.732,-0.44],[-69.693,-0.456],[-69.605,-0.542],[-69.589,-0.683],[-69.571,-0.832],[-69.555,-1.193],[-69.768,-1.051],[-69.934,-0.948],[-70.178,-1.093],[-70.259,-0.658],[-70.443,-0.484],[-71.476,0.175],[-71.769,0.919],[-71.686,0.97],[-71.59,1.053],[-71.576,1.108],[-71.527,1.176],[-71.55,1.25],[-71.517,1.309],[-71.482,1.439],[-71.302,1.7],[-71.094,1.782],[-70.898,1.902],[-70.708,1.917],[-70.504,1.946],[-70.124,2.074],[-70.11,2.08]]]]}},{"type":"Feature","properties":{"name":"VICHADA","code":"99"},"geometry":{"type":"MultiPolygon","coordinates":[[[[-67.81,6.324],[-67.692,6.293],[-67.607,6.281],[-67.474,6.212],[-67.453,6.056],[-67.489,5.93],[-67.608,5.796],[-67.629,5.618],[-67.642,5.461],[-67.792,5.362],[-68.136,3.953],[-68.504,3.833],[-68.551,3.778],[-68.679,3.808],[-68.758,3.781],[-68.83,3.684],[-68.926,3.732],[-69.031,3.662],[-69.186,3.644],[-69.241,3.692],[-69.399,3.667],[-69.505,3.679],[-69.623,3.573],[-69.743,3.589],[-69.954,3.431],[-70.154,3.207],[-70.302,3.026],[-70.952,2.812],[-70.96,5.093],[-70.57,5.437],[-70.094,5.668],[-69.475,6.073],[-69.084,6.212],[-68.917,6.177],[-68.748,6.157],[-68.584,6.167],[-68.417,6.185],[-68.247,6.197],[-68.097,6.232],[-67.969,6.216],[-67.817,6.322],[-67.81,6.324]]]]}}]}